NORAD_CAT_ID,OBJECT_NAME,OBJECT_TYPE,EPOCH,MEAN_MOTION,ECCENTRICITY,INCLINATION,RA_OF_ASC_NODE,ARG_OF_PERICENTER,MEAN_ANOMALY,BSTAR,MEAN_MOTION_DOT,MEAN_MOTION_DDOT,TLE_LINE0,TLE_LINE1,TLE_LINE2,SEMIMAJOR_AXIS,PERIOD,APOGEE,PERIGEE,DECAYED
53833.0,STARLINK-4771,PAYLOAD,2023-04-12 12:46:54,15.08841386,0.0001235,53.218,32.1954,89.1538,270.9596,4.5939e-05,4.43e-06,0.0,0 STARLINK-4771,1 53833U 22114R   23102.53257761  .00000443  00000-0  45939-4 0  9991,2 53833  53.2180  32.1954 0001235  89.1538 270.9596 15.08841386 32481,6917.876,95.437,540.596,538.887,0.0
53833.0,STARLINK-4771,PAYLOAD,2023-04-13 04:40:45,15.08845724,0.0001244,53.2187,29.2214,98.1905,261.9228,7.8352e-06,-1.63e-06,0.0,0 STARLINK-4771,1 53833U 22114R   23103.19497544 -.00000163  00000-0  78352-5 0  9995,2 53833  53.2187  29.2214 0001244  98.1905 261.9228 15.08845724 32585,6917.863,95.437,540.588,538.867,0.0
53833.0,STARLINK-4771,PAYLOAD,2023-04-13 12:37:41,15.08839931,0.0001052,53.2185,27.7375,75.5266,284.5843,-4.6806e-05,-1.033e-05,0.0,0 STARLINK-4771,1 53833U 22114R   23103.52617909 -.00001033  00000-0 -46806-4 0  9997,2 53833  53.2185  27.7375 0001052  75.5266 284.5843 15.08839931 32093,6917.881,95.438,540.473,539.018,0.0
53833.0,STARLINK-4771,PAYLOAD,2023-04-14 04:31:33,15.08851027,0.0001145,53.218,24.762,98.4724,261.6398,0.00031269,4.694e-05,0.0,0 STARLINK-4771,1 53833U 22114R   23104.18857759  .00004694  00000-0  31269-3 0  9999,2 53833  53.2180  24.7620 0001145  98.4724 261.6398 15.08851027 32736,6917.847,95.437,540.504,538.92,0.0
53833.0,STARLINK-4771,PAYLOAD,2023-04-15 02:46:56,15.08858703,9.45e-05,53.2183,20.6006,97.9577,262.1523,0.0002766,4.119e-05,0.0,0 STARLINK-4771,1 53833U 22114R   23105.11593428  .00004119  00000-0  27660-3 0  9995,2 53833  53.2183  20.6006 0000945  97.9577 262.1523 15.08858703 32878,6917.823,95.436,540.342,539.034,0.0
53833.0,STARLINK-4771,PAYLOAD,2023-04-15 21:51:35,15.08837478,0.000137,53.2186,17.0316,102.0676,258.0469,5.1255e-05,5.28e-06,0.0,0 STARLINK-4771,1 53833U 22114R   23105.91082715  .00000528  00000-0  51255-4 0  9993,2 53833  53.2186  17.0316 0001370 102.0676 258.0469 15.08837478 32459,6917.888,95.438,540.701,538.805,0.0
53833.0,STARLINK-4771,PAYLOAD,2023-04-16 02:37:44,15.08841235,0.0001098,53.2202,16.143,96.3418,263.7699,-1.3634e-05,-5.05e-06,0.0,0 STARLINK-4771,1 53833U 22114R   23106.10954432 -.00000505  00000-0 -13634-4 0  9995,2 53833  53.2202  16.1430 0001098  96.3418 263.7699 15.08841235 33029,6917.877,95.437,540.501,538.982,0.0
53833.0,STARLINK-4771,PAYLOAD,2023-04-16 21:42:22,15.08835394,0.0001097,53.2199,12.5742,93.8868,266.225,-3.56e-05,-8.54e-06,0.0,0 STARLINK-4771,1 53833U 22114R   23106.90442919 -.00000854  00000-0 -35600-4 0  9999,2 53833  53.2199  12.5742 0001097  93.8868 266.2250 15.08835394 33143,6917.894,95.438,540.518,539.001,0.0
53833.0,STARLINK-4771,PAYLOAD,2023-04-17 04:03:54,15.08846923,0.0001072,53.2186,11.3796,64.9894,295.121,7.9048e-05,9.71e-06,0.0,0 STARLINK-4771,1 53833U 22114R   23107.16938262  .00000971  00000-0  79048-4 0  9991,2 53833  53.2186  11.3796 0001072  64.9894 295.1210 15.08846923 32647,6917.859,95.437,540.466,538.983,0.0
53833.0,STARLINK-4771,PAYLOAD,2023-04-17 21:33:09,15.08837615,0.0001192,53.2175,8.1075,51.4608,308.6491,5.2107e-05,5.41e-06,0.0,0 STARLINK-4771,1 53833U 22114R   23107.89803184  .00000541  00000-0  52107-4 0  9995,2 53833  53.2175   8.1075 0001192  51.4608 308.6491 15.08837615 33297,6917.888,95.438,540.577,538.928,0.0
53833.0,STARLINK-4771,PAYLOAD,2023-04-18 02:19:18,15.08849988,0.000125,53.218,7.2167,63.6931,296.419,0.00023036,3.381e-05,0.0,0 STARLINK-4771,1 53833U 22114R   23108.09674536  .00003381  00000-0  23036-3 0  9998,2 53833  53.2180   7.2167 0001250  63.6931 296.4190 15.08849988 33324,6917.85,95.437,540.58,538.85,0.0
53833.0,STARLINK-4771,PAYLOAD,2023-04-18 16:37:47,15.08833363,5.42e-05,53.2184,4.5381,83.2752,276.8302,-8.9555e-05,-1.712e-05,0.0,0 STARLINK-4771,1 53833U 22114R   23108.69291252 -.00001712  00000-0 -89555-4 0  9991,2 53833  53.2184   4.5381 0000542  83.2752 276.8302 15.08833363 33415,6917.901,95.438,540.141,539.391,0.0
53833.0,STARLINK-4771,PAYLOAD,2023-04-19 02:10:06,15.08847786,0.0001215,53.2172,2.7578,67.7369,292.3752,0.00010455,1.377e-05,0.0,0 STARLINK-4771,1 53833U 22114R   23109.09034735  .00001377  00000-0  10455-3 0  9994,2 53833  53.2172   2.7578 0001215  67.7369 292.3752 15.08847786 33471,6917.857,95.437,540.562,538.881,0.0
53833.0,STARLINK-4771,PAYLOAD,2023-04-20 02:00:53,15.08848233,9.86e-05,53.2172,358.2932,90.9191,269.1914,7.3486e-05,8.82e-06,0.0,0 STARLINK-4771,1 53833U 22114R   23110.08394735  .00000882  00000-0  73486-4 0  9998,2 53833  53.2172 358.2932 0000986  90.9191 269.1914 15.08848233 33086,6917.855,95.437,540.402,539.038,0.0
53833.0,STARLINK-4771,PAYLOAD,2023-04-20 22:40:54,15.0883604,0.0001164,53.2171,354.4321,66.7022,293.4093,2.3517e-05,8.6e-07,0.0,0 STARLINK-4771,1 53833U 22114R   23110.94507783  .00000086  00000-0  23517-4 0  9998,2 53833  53.2171 354.4321 0001164  66.7022 293.4093 15.08836040 33753,6917.892,95.438,540.563,538.952,0.0
53833.0,STARLINK-4771,PAYLOAD,2023-04-21 00:16:17,15.08837936,0.0001116,53.2176,354.1332,76.923,283.1887,1.6031e-05,-3.3e-07,0.0,0 STARLINK-4771,1 53833U 22114R   23111.01131587 -.00000033  00000-0  16031-4 0  9998,2 53833  53.2176 354.1332 0001116  76.9230 283.1887 15.08837936 33761,6917.887,95.438,540.524,538.98,0.0
53833.0,STARLINK-4771,PAYLOAD,2023-04-21 16:10:08,15.0884679,0.0001052,53.2172,351.1598,68.2518,291.8586,4.0607e-05,3.59e-06,0.0,0 STARLINK-4771,1 53833U 22114R   23111.67371417  .00000359  00000-0  40607-4 0  9994,2 53833  53.2172 351.1598 0001052  68.2518 291.8586 15.08846790 33861,6917.86,95.437,540.452,538.997,0.0
53833.0,STARLINK-4771,PAYLOAD,2023-04-22 01:42:27,15.08857172,0.0001184,53.2168,349.3767,73.9283,286.184,0.00023923,3.523e-05,0.0,0 STARLINK-4771,1 53833U 22114R   23112.07114742  .00003523  00000-0  23923-3 0  9992,2 53833  53.2168 349.3767 0001184  73.9283 286.1840 15.08857172 33384,6917.828,95.436,540.512,538.874,0.0
53833.0,STARLINK-4771,PAYLOAD,2023-04-22 22:22:28,15.08847024,0.000133,53.2165,345.512,75.0329,285.0811,0.00013421,1.849e-05,0.0,0 STARLINK-4771,1 53833U 22114R   23112.93227106  .00001849  00000-0  13421-3 0  9997,2 53833  53.2165 345.5120 0001330  75.0329 285.0811 15.08847024 33515,6917.859,95.437,540.644,538.804,0.0
53833.0,STARLINK-4771,PAYLOAD,2023-04-23 14:16:20,15.08837053,0.000134,53.2176,342.5363,67.976,292.1375,-0.00012257,-2.238e-05,0.0,0 STARLINK-4771,1 53833U 22114R   23113.59467633 -.00002238  00000-0 -12257-3 0  9992,2 53833  53.2176 342.5363 0001340  67.9760 292.1375 15.08837053 33619,6917.889,95.438,540.681,538.827,0.0
53833.0,STARLINK-4771,PAYLOAD,2023-04-23 17:27:06,15.08837053,0.0001209,53.2167,341.9427,68.9388,291.1733,-9.8849e-05,-1.861e-05,0.0,0 STARLINK-4771,1 53833U 22114R   23113.72715432 -.00001861  00000-0 -98849-4 0  9993,2 53833  53.2167 341.9427 0001209  68.9388 291.1733 15.08837053 34173,6917.889,95.438,540.591,538.918,0.0
53833.0,STARLINK-4771,PAYLOAD,2023-04-24 01:24:01,15.08845386,0.0001773,53.2171,340.4579,67.489,292.6289,0.00012576,1.714e-05,0.0,0 STARLINK-4771,1 53833U 22114R   23114.05835548  .00001714  00000-0  12576-3 0  9998,2 53833  53.2171 340.4579 0001773  67.4890 292.6289 15.08845386 34224,6917.864,95.437,540.955,538.502,0.0
53833.0,STARLINK-4771,PAYLOAD,2023-04-24 17:17:51,15.0888284,0.0001254,53.2173,337.4832,74.2943,285.8187,0.00091165,0.00014268,0.0,0 STARLINK-4771,1 53833U 22114R   23114.72073632  .00014268  00000-0  91165-3 0  9999,2 53833  53.2173 337.4832 0001254  74.2943 285.8187 15.08882840 33780,6917.749,95.435,540.482,538.747,0.0
53833.0,STARLINK-4771,PAYLOAD,2023-04-25 01:14:46,15.08892186,0.0001392,53.2174,335.9961,78.1139,282.0009,0.0010571,0.000166,0.0,0 STARLINK-4771,1 53833U 22114R   23115.05192981  .00016600  00000-0  10571-2 0  9998,2 53833  53.2174 335.9961 0001392  78.1139 282.0009 15.08892186 34372,6917.721,95.434,540.549,538.623,0.0
53833.0,STARLINK-4771,PAYLOAD,2023-04-26 13:48:43,15.08804532,8.15e-05,53.2156,329.1559,126.9632,233.1435,0.0021186,0.00033558,0.0,0 STARLINK-4771,1 53833U 22114R   23116.57549816  .00033558  00000-0  21186-2 0  9994,2 53833  53.2156 329.1559 0000815 126.9632 233.1435 15.08804532 34603,6917.989,95.44,540.418,539.29,0.0
53833.0,STARLINK-4771,PAYLOAD,2023-04-26 20:10:15,15.0882709,8.48e-05,53.2155,327.9669,136.6512,223.4547,0.0028634,0.00045562,0.0,0 STARLINK-4771,1 53833U 22114R   23116.84046165  .00045562  00000-0  28634-2 0  9996,2 53833  53.2155 327.9669 0000848 136.6512 223.4547 15.08827090 34645,6917.92,95.438,540.371,539.198,0.0
53833.0,STARLINK-4771,PAYLOAD,2023-04-27 13:39:28,15.08874852,6.56e-05,53.2161,324.6983,149.6736,210.4294,0.00091024,0.00014242,0.0,0 STARLINK-4771,1 53833U 22114R   23117.56908515  .00014242  00000-0  91024-3 0  9997,2 53833  53.2161 324.6983 0000656 149.6736 210.4294 15.08874852 34759,6917.774,95.435,540.093,539.185,0.0
53833.0,STARLINK-4771,PAYLOAD,2023-04-27 18:25:38,15.08873787,7.91e-05,53.2154,323.8015,156.5034,203.5995,0.00077198,0.00012031,0.0,0 STARLINK-4771,1 53833U 22114R   23117.76780182  .00012031  00000-0  77198-3 0  9997,2 53833  53.2154 323.8015 0000791 156.5034 203.5995 15.08873787 34247,6917.777,95.435,540.189,539.095,0.0
53833.0,STARLINK-4771,PAYLOAD,2023-04-28 07:08:42,15.08855049,0.0001016,53.2162,321.427,113.8114,246.2985,-0.00015788,-2.801e-05,0.0,0 STARLINK-4771,1 53833U 22114R   23118.29771889 -.00002801  00000-0 -15788-3 0  9993,2 53833  53.2162 321.4270 0001016 113.8114 246.2985 15.08855049 34322,6917.834,95.437,540.402,538.997,0.0
53833.0,STARLINK-4771,PAYLOAD,2023-04-28 23:02:34,15.08848519,6.39e-05,53.219,318.4534,165.8494,194.2516,4.6566e-05,4.54e-06,0.0,0 STARLINK-4771,1 53833U 22114R   23118.96011934  .00000454  00000-0  46566-4 0  9994,2 53833  53.2190 318.4534 0000639 165.8494 194.2516 15.08848519 34427,6917.854,95.437,540.161,539.277,0.0
